CZ-4B R/B               
1 27432U 02024C   24168.60562015  .00000103  00000+0  76887-4 0  9995
2 27432  98.9747 210.9237 0050484  13.8984  99.1117 14.14327584140026
MIDORI II (ADEOS-II)    
1 27597U 02056A   24168.47723211  .00000478  00000+0  20920-3 0  9995
2 27597  98.6918 115.1662 0002065  66.3728 293.7669 14.28377708120158
H-2A R/B                
1 27601U 02056E   24168.53682191  .00000403  00000+0  15855-3 0  9998
2 27601  98.2296 145.6385 0069994 243.0087 226.9687 14.32835624123696
CZ-4B R/B               
1 28059U 03049C   24168.49787512  .00000755  00000+0  18889-3 0  9997
2 28059  98.6105 130.8479 0049153 359.7551   0.3612 14.53799483 94844
CZ-2C R/B               
1 28222U 04012C   24168.57080360  .00014004  00000+0  53418-3 0  9995
2 28222  97.8033 181.5203 0035498  54.8257 305.6297 15.26200260107002
SL-16 R/B               
1 28353U 04021B   24168.31523601  .00000320  00000+0  19170-3 0  9995
2 28353  71.0010 117.3178 0007240 275.7360  84.2936 14.14424109 33551
CZ-4B R/B               
1 28415U 04035C   24168.54298208  .00007132  00000+0  36821-3 0  9996
2 28415  97.4233 202.2168 0043111  28.1266 332.2283 15.15794439 83862
CZ-2C R/B               
1 28480U 04046B   24168.45753675  .00000215  00000+0  96268-4 0  9991
2 28480  98.1623 112.7292 0139720 221.1326 137.9258 14.26384427 18494
ARIANE 5 R/B            
1 28499U 04049H   24168.38532050  .00001573  00000+0  19037-3 0  9994
2 28499  98.1841 306.3291 0087144 235.1254 124.1744 14.82578889 52151
CZ-2D R/B               
1 28738U 05024B   24168.54400511  .00011944  00000+0  46353-3 0  9992
2 28738  97.3629 167.1144 0010423 137.1203 223.0850 15.26200107 42568
SUZAKU (ASTRO-EII)      
1 28773U 05025A   24168.35750132  .00036775  00000+0  72126-3 0  9994
2 28773  31.3865 145.0067 0003246 263.4879  96.5407 15.46117383 46866
ALOS (DAICHI)           
1 28931U 06002A   24168.61096930  .00002232  00000+0  41754-3 0  9998
2 28931  98.0361 121.6811 0002286 108.6041 251.5411 14.65832869980895
H-2A R/B                
1 28932U 06002B   24168.50775329  .00006950  00000+0  51800-3 0  9997
2 28932  98.2056 260.1803 0070778 204.9350 154.8448 15.01237123999239
RESURS-DK 1             
1 29228U 06021A   24168.42325414  .00003381  00000+0  23013-3 0  9994
2 29228  69.9362  63.7120 0004318 333.6967  26.3976 15.07304644992201
GENESIS 1               
1 29252U 06029A   24168.39348388  .00021116  00000+0  54797-3 0  9999
2 29252  64.5139 168.7666 0024608 324.7892  35.1614 15.38715695990463
CZ-4B R/B               
1 29507U 06046C   24168.55762290  .00004309  00000+0  28204-3 0  9990
2 29507  97.6432 204.6140 0038398 279.4491  80.2397 15.07688944964628
CZ-2C R/B               
1 31114U 07010B   24168.62184610  .00000215  00000+0  11886-3 0  9991
2 31114  98.3326 304.7209 0058749 331.1031  28.6897 14.19795986890155
COSMO-SKYMED 1          
1 31598U 07023A   24168.52833406  .00000878  00000+0  11688-3 0  9999
2 31598  97.8867 351.6828 0001590  90.0707 270.0688 14.82151564921026
GENESIS 2               
1 31789U 07028A   24168.49689681  .00016226  00000+0  44689-3 0  9997
2 31789  64.4890 214.0439 0021722 226.7164 133.2157 15.37080766937314
COSMOS 2428             
1 31792U 07029A   24168.49107549 -.00000200  00000+0 -82194-4 0  9991
2 31792  70.9418  88.2377 0008294  39.1981 320.9739 14.12714815874941
SL-16 R/B               
1 31793U 07029B   24168.47562905  .00000323  00000+0  19262-3 0  9990
2 31793  70.9770  59.0694 0002381 261.7141 271.4296 14.14637358876097
KORONAS-FOTON           
1 33504U 09003A   24168.54215668  .00007313  00000+0  27985-3 0  9992
2 33504  82.4371 203.4510 0014141 238.9698 121.0152 15.26307904848923
CZ-2C R/B               
1 37731U 11030B   24168.51967292  .00001595  00000+0  22428-3 0  9998
2 37731  97.7636 132.4285 0054627 241.7159 233.0016 14.77717187696757
H-2A R/B                
1 38341U 12025E   24168.53705905  .00002504  00000+0  26941-3 0  9999
2 38341  98.4241  80.0351 0049796 208.7330 151.1140 14.88641157654096
CUSAT 2 & FALCON 9 R/B  
1 39271U 13055G   24168.25388632  .00059127  13955-6  66626-3 0  9996
2 39271  80.9324  80.7598 0297314 310.4482  47.1159 15.23709115565237
SHIJIAN-16 (SJ-16)      
1 39358U 13057A   24168.57502129  .00002920  00000+0  31359-3 0  9992
2 39358  74.9737 297.1086 0017727 201.3858 158.6589 14.88840991577453
CZ-2C R/B               
1 39364U 13059B   24168.58980173  .00579437  16303-3  84007-3 0  9998
2 39364  97.0224 219.1601 0012232 184.5075 175.6098 16.05156740593144
SL-4 R/B                
1 39679U 14021B   24168.37778354  .00014372  00000+0  52856-3 0  9992
2 39679  51.6093 132.7841 0137099 355.2923   4.6753 15.19705617559640
ALOS-2                  
1 39766U 14029A   24168.56911304  .00002921  00000+0  39782-3 0  9992
2 39766  97.9215 265.2192 0001546  93.3786 266.7602 14.79482089543581
SL-27 R/B               
1 40354U 14084B   24168.56233531  .00055445  00000+0  34871-3 0  9990
2 40354  74.7221 211.1438 0017912 359.9777   0.1450 15.76229084534048
YAOGAN-29               
1 41038U 15069A   24168.56938272  .00000792  00000+0  10722-3 0  9992
2 41038  98.0542 182.9775 0000903 193.3485 166.7704 14.81774062462373
ASTRO-H (HITOMI)        
1 41337U 16012A   24168.46680760  .00003707  00000+0  25679-3 0  9994
2 41337  31.0018  92.7769 0010616 130.1647 229.9920 15.03818577456912
HXMT (HUIYAN)           
1 42758U 17034A   24168.57258916  .00009163  00000+0  49960-3 0  9994
2 42758  43.0146 278.2333 0013443 157.3341 202.8101 15.14497807386741
CZ-2C R/B               
1 43521U 18054D   24168.56025584  .00013512  00000+0  45281-3 0  9993
2 43521  35.1459 120.3697 0055927 126.6009 233.9872 15.28575345330773
SAOCOM 1A               
1 43641U 18076A   24168.53686759  .00000731  00000+0  98420-4 0  9997
2 43641  97.8884 354.7721 0001369  92.8414 267.2956 14.82141597307874
H-2A R/B                
1 43682U 18084L   24168.23517181  .00010151  00000+0  53548-3 0  9998
2 43682  98.8514 255.5313 0044134  14.3147 345.9320 15.14959770309354
SAOCOM 1B               
1 46265U 20059A   24168.56811365  .00000778  00000+0  10427-3 0  9993
2 46265  97.8886 353.8955 0001504  90.5569 269.5817 14.82156594205261
CSS (TIANHE)            
1 48274U 21035A   24168.46242106  .00039644  00000+0  44378-3 0  9996
2 48274  41.4679  87.5375 0003963 234.4636 125.5834 15.61938631178986
COSMOS 2550             
1 48865U 21056A   24168.43846133  .00007748  00000+0  24101-3 0  9994
2 48865  67.1407 150.5720 0008351 269.8512  90.1685 15.33842166166650
2022-019U               
1 51842U 22019U   24168.57291161  .00215451  00000+0  11078-2 0  9993
2 51842  97.5080 275.4709 0015947 103.0459 257.2590 15.80444629129020
CZ-2C R/B               
1 52794U 22058K   24168.55690297  .00013969  00000+0  54232-3 0  9994
2 52794  50.1821 243.8852 0078876 125.8129 235.0191 15.23451982113020
XRISM                   
1 57800U 23137A   24168.29730617  .00005919  00000+0  44356-3 0  9990
2 57800  31.0046  18.2795 0009420 201.2871 158.7374 15.01219360 42474
SZ-17 MODULE            
1 59624U 23164C   24168.26278717  .00040185  00000+0  39233-3 0  9993
2 59624  41.4771  88.6720 0007789 253.9229 106.0754 15.65380708  7391
